{
"type": "FeatureCollection",
"name": "las_boundary",
"crs": { "type": "name", "properties": { "name": "urn:ogc:def:crs:OGC:1.3:CRS84" } },
"xy_coordinate_resolution": 0.0001,
"features": [
{ "type": "Feature", "properties": { }, "geometry": { "type": "MultiLineString", "coordinates": [ [ [ -0.4078, 51.4236 ], [ -0.411, 51.4274 ], [ -0.4131, 51.4279 ], [ -0.4125, 51.4288 ], [ -0.4144, 51.4293 ], [ -0.4138, 51.4301 ], [ -0.4179, 51.431 ], [ -0.4173, 51.4319 ], [ -0.4184, 51.4319 ], [ -0.4191, 51.4324 ], [ -0.4215, 51.4321 ], [ -0.4235, 51.4309 ], [ -0.4274, 51.4308 ], [ -0.4278, 51.4293 ], [ -0.4294, 51.4294 ], [ -0.4297, 51.4288 ], [ -0.4343, 51.4293 ], [ -0.44, 51.4306 ], [ -0.4398, 51.4346 ], [ -0.4477, 51.435 ], [ -0.4463, 51.44 ], [ -0.4565, 51.4382 ], [ -0.4554, 51.4421 ], [ -0.4572, 51.4429 ], [ -0.4576, 51.4492 ], [ -0.4615, 51.449 ], [ -0.4613, 51.4524 ], [ -0.4598, 51.4522 ], [ -0.4593, 51.4527 ], [ -0.4586, 51.4563 ], [ -0.461, 51.4572 ], [ -0.4739, 51.4588 ], [ -0.4763, 51.4606 ], [ -0.4762, 51.461 ], [ -0.4776, 51.4614 ], [ -0.4853, 51.4613 ], [ -0.4897, 51.4618 ], [ -0.4922, 51.463 ], [ -0.4936, 51.4627 ], [ -0.497, 51.4659 ], [ -0.4994, 51.4669 ], [ -0.5055, 51.4678 ], [ -0.5066, 51.4676 ], [ -0.5072, 51.4669 ], [ -0.5088, 51.4671 ], [ -0.5103, 51.4678 ], [ -0.5097, 51.4692 ], [ -0.5085, 51.4695 ], [ -0.507, 51.4708 ], [ -0.505, 51.4749 ], [ -0.5032, 51.4811 ], [ -0.4989, 51.4857 ], [ -0.499, 51.4867 ], [ -0.4997, 51.4868 ], [ -0.4992, 51.4886 ], [ -0.4983, 51.4884 ], [ -0.498, 51.4888 ], [ -0.4986, 51.4893 ], [ -0.4965, 51.4899 ], [ -0.4968, 51.4905 ], [ -0.4949, 51.4913 ], [ -0.4953, 51.492 ], [ -0.4948, 51.4927 ], [ -0.4915, 51.493 ], [ -0.4887, 51.496 ], [ -0.4886, 51.4968 ], [ -0.4895, 51.4976 ], [ -0.4888, 51.4985 ], [ -0.4897, 51.499 ], [ -0.4887, 51.5002 ], [ -0.4875, 51.5003 ], [ -0.4873, 51.501 ], [ -0.4862, 51.5009 ], [ -0.4862, 51.5018 ], [ -0.4847, 51.5036 ], [ -0.485, 51.5051 ], [ -0.4833, 51.5066 ], [ -0.4832, 51.5072 ], [ -0.484, 51.5077 ], [ -0.4835, 51.5081 ], [ -0.4858, 51.5098 ], [ -0.4855, 51.51 ], [ -0.4898, 51.5115 ], [ -0.4896, 51.5141 ], [ -0.4912, 51.5153 ], [ -0.4923, 51.5171 ], [ -0.4916, 51.5189 ], [ -0.4904, 51.52 ], [ -0.4912, 51.5213 ], [ -0.4903, 51.5246 ], [ -0.4909, 51.5262 ], [ -0.489, 51.5291 ], [ -0.4912, 51.5334 ], [ -0.4905, 51.5342 ], [ -0.4933, 51.5358 ], [ -0.4955, 51.5383 ], [ -0.4936, 51.541 ], [ -0.4918, 51.5416 ], [ -0.4921, 51.5424 ], [ -0.4908, 51.545 ], [ -0.4916, 51.5453 ], [ -0.4914, 51.5461 ], [ -0.4895, 51.5463 ], [ -0.4895, 51.5472 ], [ -0.488, 51.5476 ], [ -0.487, 51.5497 ], [ -0.4844, 51.5514 ], [ -0.4827, 51.5515 ], [ -0.4789, 51.5548 ], [ -0.4773, 51.5553 ], [ -0.4766, 51.558 ], [ -0.4775, 51.5603 ], [ -0.4811, 51.5608 ], [ -0.4808, 51.5618 ], [ -0.4828, 51.5628 ], [ -0.4822, 51.5639 ], [ -0.4832, 51.5651 ], [ -0.4826, 51.5657 ], [ -0.4847, 51.5667 ], [ -0.484, 51.5712 ], [ -0.4855, 51.5738 ], [ -0.484, 51.5751 ], [ -0.4877, 51.5762 ], [ -0.4892, 51.5778 ], [ -0.4895, 51.5784 ], [ -0.4886, 51.5796 ], [ -0.4896, 51.5818 ], [ -0.4945, 51.5845 ], [ -0.4957, 51.5881 ], [ -0.4972, 51.5893 ], [ -0.4978, 51.591 ], [ -0.4988, 51.5912 ], [ -0.4985, 51.5919 ], [ -0.4995, 51.5921 ], [ -0.4986, 51.5944 ], [ -0.4994, 51.5953 ], [ -0.5009, 51.6002 ], [ -0.5003, 51.6013 ], [ -0.4991, 51.6014 ], [ -0.4976, 51.6009 ], [ -0.4967, 51.6015 ], [ -0.4963, 51.6025 ], [ -0.4972, 51.6034 ], [ -0.4973, 51.6049 ], [ -0.4992, 51.6088 ], [ -0.4983, 51.6095 ], [ -0.4989, 51.6111 ], [ -0.4978, 51.6145 ], [ -0.4971, 51.6149 ], [ -0.4954, 51.6188 ], [ -0.497, 51.6205 ], [ -0.4992, 51.621 ], [ -0.5001, 51.6219 ], [ -0.5, 51.6237 ], [ -0.4978, 51.6258 ], [ -0.4977, 51.6268 ], [ -0.5003, 51.6289 ], [ -0.4993, 51.6305 ], [ -0.4972, 51.6317 ], [ -0.4961, 51.6317 ], [ -0.4935, 51.6306 ], [ -0.4915, 51.6308 ], [ -0.4879, 51.6268 ], [ -0.4767, 51.6219 ], [ -0.4692, 51.6168 ], [ -0.4571, 51.6123 ], [ -0.4492, 51.6152 ], [ -0.4457, 51.6195 ], [ -0.4405, 51.6201 ], [ -0.4263, 51.617 ], [ -0.4206, 51.6169 ], [ -0.416, 51.6162 ], [ -0.4111, 51.6138 ], [ -0.4041, 51.6132 ], [ -0.3995, 51.6134 ], [ -0.3938, 51.6149 ], [ -0.3869, 51.6156 ], [ -0.3837, 51.6164 ], [ -0.382, 51.6174 ], [ -0.3731, 51.619 ], [ -0.3655, 51.6213 ], [ -0.3598, 51.6252 ], [ -0.3504, 51.6266 ], [ -0.3452, 51.6283 ], [ -0.3399, 51.6307 ], [ -0.3383, 51.6295 ], [ -0.333, 51.6338 ], [ -0.3265, 51.6367 ], [ -0.3198, 51.6382 ], [ -0.3181, 51.6399 ], [ -0.3167, 51.6405 ], [ -0.3054, 51.6371 ], [ -0.3045, 51.6364 ], [ -0.2962, 51.6355 ], [ -0.2919, 51.6365 ], [ -0.2855, 51.6369 ], [ -0.2814, 51.6383 ], [ -0.2786, 51.6383 ], [ -0.2765, 51.6389 ], [ -0.2737, 51.6387 ], [ -0.2742, 51.6391 ], [ -0.2728, 51.6421 ], [ -0.2682, 51.6424 ], [ -0.2683, 51.6438 ], [ -0.2655, 51.644 ], [ -0.2643, 51.6436 ], [ -0.2631, 51.6448 ], [ -0.2613, 51.6438 ], [ -0.2607, 51.6427 ], [ -0.2573, 51.6418 ], [ -0.2562, 51.6435 ], [ -0.2555, 51.6432 ], [ -0.254, 51.6442 ], [ -0.2516, 51.648 ], [ -0.2499, 51.6546 ], [ -0.2508, 51.6548 ], [ -0.2512, 51.6555 ], [ -0.2506, 51.6561 ], [ -0.2493, 51.6561 ], [ -0.2479, 51.6552 ], [ -0.2436, 51.6567 ], [ -0.2414, 51.6572 ], [ -0.241, 51.6568 ], [ -0.238, 51.6578 ], [ -0.2383, 51.6582 ], [ -0.2365, 51.6588 ], [ -0.2347, 51.659 ], [ -0.2342, 51.6583 ], [ -0.2285, 51.66 ], [ -0.2281, 51.6586 ], [ -0.2265, 51.6572 ], [ -0.2192, 51.6608 ], [ -0.2189, 51.6601 ], [ -0.2135, 51.6623 ], [ -0.2122, 51.6613 ], [ -0.2079, 51.6628 ], [ -0.2111, 51.667 ], [ -0.2098, 51.6676 ], [ -0.208, 51.6666 ], [ -0.2056, 51.6686 ], [ -0.2022, 51.6678 ], [ -0.2034, 51.6701 ], [ -0.1999, 51.6702 ], [ -0.199, 51.6682 ], [ -0.1949, 51.6683 ], [ -0.1966, 51.6655 ], [ -0.1917, 51.6645 ], [ -0.191, 51.6639 ], [ -0.1878, 51.6679 ], [ -0.1858, 51.6685 ], [ -0.1821, 51.6686 ], [ -0.1767, 51.6721 ], [ -0.177, 51.6727 ], [ -0.1754, 51.6726 ], [ -0.1753, 51.6734 ], [ -0.1725, 51.6731 ], [ -0.1636, 51.6824 ], [ -0.1635, 51.6881 ], [ -0.158, 51.6872 ], [ -0.1533, 51.6859 ], [ -0.1494, 51.6855 ], [ -0.1354, 51.6887 ], [ -0.1222, 51.6885 ], [ -0.1182, 51.6889 ], [ -0.1097, 51.6917 ], [ -0.1058, 51.6919 ], [ -0.0943, 51.6901 ], [ -0.0848, 51.6901 ], [ -0.079, 51.6889 ], [ -0.0655, 51.6836 ], [ -0.0611, 51.6829 ], [ -0.0517, 51.6835 ], [ -0.0492, 51.6843 ], [ -0.0466, 51.6834 ], [ -0.0438, 51.6831 ], [ -0.0294, 51.6824 ], [ -0.018, 51.681 ], [ -0.0111, 51.6809 ], [ -0.0103, 51.6765 ], [ -0.0114, 51.6711 ], [ -0.0106, 51.6692 ], [ -0.0114, 51.6636 ], [ -0.0089, 51.6602 ], [ -0.0118, 51.653 ], [ -0.0123, 51.6462 ], [ -0.0092, 51.6465 ], [ -0.0073, 51.6462 ], [ -0.0084, 51.6445 ], [ -0.0081, 51.6436 ], [ -0.0046, 51.6435 ], [ -0.004, 51.6427 ], [ -0.0003, 51.6436 ], [ 0.0009, 51.6418 ], [ 0.0099, 51.6414 ], [ 0.0174, 51.6403 ], [ 0.0227, 51.6411 ], [ 0.0231, 51.6377 ], [ 0.0252, 51.6373 ], [ 0.0247, 51.6361 ], [ 0.0257, 51.6346 ], [ 0.0238, 51.6308 ], [ 0.0218, 51.6288 ], [ 0.0268, 51.6259 ], [ 0.0291, 51.6251 ], [ 0.0305, 51.6233 ], [ 0.0326, 51.6224 ], [ 0.0375, 51.6179 ], [ 0.0408, 51.6157 ], [ 0.0437, 51.6169 ], [ 0.0537, 51.6183 ], [ 0.0544, 51.6176 ], [ 0.0541, 51.6167 ], [ 0.0533, 51.6163 ], [ 0.0518, 51.6168 ], [ 0.0502, 51.6164 ], [ 0.0483, 51.6146 ], [ 0.0482, 51.6132 ], [ 0.0489, 51.6136 ], [ 0.0523, 51.6121 ], [ 0.063, 51.6069 ], [ 0.064, 51.6072 ], [ 0.066, 51.6063 ], [ 0.073, 51.6047 ], [ 0.0785, 51.6069 ], [ 0.0802, 51.607 ], [ 0.0845, 51.6064 ], [ 0.0871, 51.6045 ], [ 0.0889, 51.6049 ], [ 0.0926, 51.6062 ], [ 0.0919, 51.6082 ], [ 0.0926, 51.6094 ], [ 0.0947, 51.6107 ], [ 0.0923, 51.6136 ], [ 0.0981, 51.6154 ], [ 0.1002, 51.6127 ], [ 0.1034, 51.6135 ], [ 0.1038, 51.6126 ], [ 0.1085, 51.6137 ], [ 0.1167, 51.6169 ], [ 0.1187, 51.6154 ], [ 0.1203, 51.6158 ], [ 0.1247, 51.6179 ], [ 0.1261, 51.6196 ], [ 0.1289, 51.6207 ], [ 0.1292, 51.6214 ], [ 0.1358, 51.6235 ], [ 0.1559, 51.6233 ], [ 0.165, 51.6225 ], [ 0.1689, 51.6214 ], [ 0.1753, 51.6236 ], [ 0.1803, 51.6245 ], [ 0.1805, 51.6257 ], [ 0.1812, 51.6258 ], [ 0.1827, 51.6257 ], [ 0.1858, 51.6244 ], [ 0.186, 51.6255 ], [ 0.1884, 51.6254 ], [ 0.1894, 51.6245 ], [ 0.1897, 51.6251 ], [ 0.1948, 51.6257 ], [ 0.2003, 51.6249 ], [ 0.2036, 51.6252 ], [ 0.2085, 51.6267 ], [ 0.2123, 51.627 ], [ 0.2175, 51.6291 ], [ 0.2221, 51.6301 ], [ 0.2241, 51.6317 ], [ 0.2373, 51.6241 ], [ 0.2528, 51.6174 ], [ 0.2577, 51.6142 ], [ 0.2583, 51.613 ], [ 0.2645, 51.6084 ], [ 0.2643, 51.6078 ], [ 0.2631, 51.6073 ], [ 0.2616, 51.6075 ], [ 0.2581, 51.6065 ], [ 0.258, 51.6049 ], [ 0.2572, 51.6049 ], [ 0.2566, 51.6036 ], [ 0.2547, 51.6027 ], [ 0.254, 51.6016 ], [ 0.2579, 51.6013 ], [ 0.2645, 51.5998 ], [ 0.2699, 51.5996 ], [ 0.2703, 51.5973 ], [ 0.2693, 51.5953 ], [ 0.2701, 51.5915 ], [ 0.2721, 51.5877 ], [ 0.2738, 51.5869 ], [ 0.282, 51.5788 ], [ 0.2851, 51.5741 ], [ 0.2867, 51.5736 ], [ 0.2872, 51.5726 ], [ 0.2867, 51.5715 ], [ 0.2903, 51.5643 ], [ 0.313, 51.5658 ], [ 0.3153, 51.5578 ], [ 0.3184, 51.5568 ], [ 0.3189, 51.5552 ], [ 0.3221, 51.5542 ], [ 0.3223, 51.5528 ], [ 0.3252, 51.5531 ], [ 0.3278, 51.551 ], [ 0.328, 51.5486 ], [ 0.3295, 51.5466 ], [ 0.3289, 51.5458 ], [ 0.3314, 51.5459 ], [ 0.3339, 51.5425 ], [ 0.3333, 51.5413 ], [ 0.334, 51.5405 ], [ 0.3314, 51.54 ], [ 0.3316, 51.5408 ], [ 0.3224, 51.5405 ], [ 0.3007, 51.5388 ], [ 0.3009, 51.5381 ], [ 0.2972, 51.5377 ], [ 0.2978, 51.5353 ], [ 0.2818, 51.5339 ], [ 0.2763, 51.5329 ], [ 0.2707, 51.5331 ], [ 0.2653, 51.5322 ], [ 0.2654, 51.525 ], [ 0.2668, 51.5245 ], [ 0.2666, 51.523 ], [ 0.265, 51.5229 ], [ 0.2643, 51.5216 ], [ 0.2637, 51.5179 ], [ 0.2603, 51.5184 ], [ 0.2589, 51.5178 ], [ 0.2538, 51.5179 ], [ 0.2509, 51.5288 ], [ 0.249, 51.5287 ], [ 0.2489, 51.5274 ], [ 0.2483, 51.5276 ], [ 0.2463, 51.5265 ], [ 0.2471, 51.5251 ], [ 0.2458, 51.5235 ], [ 0.2429, 51.5244 ], [ 0.241, 51.5226 ], [ 0.2407, 51.5212 ], [ 0.2443, 51.5205 ], [ 0.2449, 51.5188 ], [ 0.2439, 51.5183 ], [ 0.2399, 51.5194 ], [ 0.2372, 51.5193 ], [ 0.2411, 51.5137 ], [ 0.24, 51.5132 ], [ 0.2403, 51.5109 ], [ 0.2414, 51.5105 ], [ 0.242, 51.508 ], [ 0.24, 51.5077 ], [ 0.2398, 51.5073 ], [ 0.2334, 51.5067 ], [ 0.2266, 51.5066 ], [ 0.226, 51.5058 ], [ 0.23, 51.4994 ], [ 0.2243, 51.4973 ], [ 0.2236, 51.4979 ], [ 0.2217, 51.4978 ], [ 0.2142, 51.496 ], [ 0.2131, 51.495 ], [ 0.2119, 51.491 ], [ 0.2096, 51.4898 ], [ 0.2089, 51.4899 ], [ 0.2093, 51.4904 ], [ 0.2084, 51.4897 ], [ 0.201, 51.4891 ], [ 0.1963, 51.4882 ], [ 0.1892, 51.4877 ], [ 0.1877, 51.4879 ], [ 0.1875, 51.4886 ], [ 0.1848, 51.4907 ], [ 0.1833, 51.4954 ], [ 0.1826, 51.4959 ], [ 0.1825, 51.4965 ], [ 0.1838, 51.4972 ], [ 0.1829, 51.4979 ], [ 0.1825, 51.4994 ], [ 0.1802, 51.5014 ], [ 0.1785, 51.5053 ], [ 0.1741, 51.508 ], [ 0.1662, 51.5107 ], [ 0.165, 51.5116 ], [ 0.1599, 51.5118 ], [ 0.1596, 51.5124 ], [ 0.1581, 51.512 ], [ 0.1517, 51.5127 ], [ 0.1458, 51.5143 ], [ 0.1451, 51.5146 ], [ 0.1458, 51.5145 ], [ 0.1455, 51.5151 ], [ 0.1443, 51.5155 ], [ 0.1437, 51.5151 ], [ 0.1393, 51.5176 ], [ 0.1363, 51.5186 ], [ 0.1267, 51.5196 ], [ 0.119, 51.5181 ], [ 0.1145, 51.5157 ], [ 0.1088, 51.5142 ], [ 0.1066, 51.514 ], [ 0.1011, 51.5145 ], [ 0.0976, 51.5159 ], [ 0.0972, 51.5157 ], [ 0.0975, 51.5159 ], [ 0.0956, 51.517 ], [ 0.0957, 51.5201 ], [ 0.0928, 51.5226 ], [ 0.0933, 51.5247 ], [ 0.0922, 51.5267 ], [ 0.0905, 51.5261 ], [ 0.0889, 51.5269 ], [ 0.0858, 51.526 ], [ 0.0811, 51.5277 ], [ 0.0781, 51.5297 ], [ 0.0764, 51.5298 ], [ 0.0755, 51.5319 ], [ 0.074, 51.5332 ], [ 0.0744, 51.5338 ], [ 0.0734, 51.5343 ], [ 0.0705, 51.5391 ], [ 0.0695, 51.539 ], [ 0.0699, 51.5408 ], [ 0.0689, 51.5421 ], [ 0.0697, 51.544 ], [ 0.0697, 51.5464 ], [ 0.069, 51.549 ], [ 0.0695, 51.5504 ], [ 0.0686, 51.5514 ], [ 0.068, 51.5543 ], [ 0.066, 51.5568 ], [ 0.0633, 51.5583 ], [ 0.061, 51.5585 ], [ 0.0574, 51.5608 ], [ 0.0607, 51.5584 ], [ 0.0641, 51.5578 ], [ 0.0659, 51.5567 ], [ 0.0676, 51.5547 ], [ 0.0683, 51.5514 ], [ 0.0692, 51.5503 ], [ 0.0687, 51.549 ], [ 0.0693, 51.544 ], [ 0.0685, 51.5407 ], [ 0.0694, 51.5403 ], [ 0.0691, 51.5388 ], [ 0.0705, 51.5385 ], [ 0.0729, 51.5345 ], [ 0.0729, 51.5335 ], [ 0.0753, 51.5312 ], [ 0.0757, 51.5297 ], [ 0.0733, 51.5292 ], [ 0.0752, 51.5295 ], [ 0.078, 51.5291 ], [ 0.0785, 51.5288 ], [ 0.0775, 51.5288 ], [ 0.0776, 51.5285 ], [ 0.0788, 51.5284 ], [ 0.0801, 51.5275 ], [ 0.0852, 51.5256 ], [ 0.0889, 51.5262 ], [ 0.0897, 51.5256 ], [ 0.0921, 51.5256 ], [ 0.0923, 51.5241 ], [ 0.0907, 51.5239 ], [ 0.0918, 51.5236 ], [ 0.0918, 51.5225 ], [ 0.0945, 51.5203 ], [ 0.0939, 51.519 ], [ 0.0948, 51.5165 ], [ 0.0969, 51.5153 ], [ 0.0903, 51.5148 ], [ 0.0905, 51.5143 ], [ 0.0881, 51.5137 ], [ 0.0833, 51.5115 ], [ 0.0837, 51.511 ], [ 0.0803, 51.5084 ], [ 0.078, 51.5051 ], [ 0.0767, 51.5049 ], [ 0.0782, 51.5044 ], [ 0.0781, 51.504 ], [ 0.0778, 51.5045 ], [ 0.0762, 51.5038 ], [ 0.0767, 51.5035 ], [ 0.0753, 51.5023 ], [ 0.074, 51.5021 ], [ 0.0747, 51.5016 ], [ 0.0737, 51.5004 ], [ 0.0697, 51.4992 ], [ 0.0601, 51.4984 ], [ 0.0435, 51.4999 ], [ 0.035, 51.4996 ], [ 0.0246, 51.4986 ], [ 0.0197, 51.4996 ], [ 0.0152, 51.5025 ], [ 0.0131, 51.5044 ], [ 0.0134, 51.5049 ], [ 0.012, 51.5053 ], [ 0.0097, 51.5068 ], [ 0.0105, 51.5086 ], [ 0.0098, 51.5092 ], [ 0.0066, 51.51 ], [ 0.0082, 51.5125 ], [ 0.0072, 51.5144 ], [ 0.0063, 51.5146 ], [ 0.0051, 51.5142 ], [ 0.0043, 51.5134 ], [ 0.0037, 51.511 ], [ 0.0026, 51.511 ], [ 0.0044, 51.5147 ], [ 0.0032, 51.5158 ], [ -0.0025, 51.5185 ], [ -0.0051, 51.5169 ], [ -0.0066, 51.519 ], [ -0.0086, 51.52 ], [ -0.0065, 51.5257 ], [ -0.0021, 51.527 ], [ 0.0007, 51.5283 ], [ 0.0018, 51.5303 ], [ 0.0011, 51.5311 ], [ -0.0008, 51.5281 ], [ -0.0023, 51.5272 ], [ -0.0038, 51.527 ], [ -0.0039, 51.5283 ], [ -0.0042, 51.5269 ], [ -0.0049, 51.5264 ], [ -0.0064, 51.5263 ], [ -0.007, 51.5271 ], [ -0.008, 51.5272 ], [ -0.0069, 51.5261 ], [ -0.0079, 51.523 ], [ -0.0086, 51.5218 ], [ -0.0094, 51.5218 ], [ -0.0092, 51.5199 ], [ -0.0067, 51.5183 ], [ -0.006, 51.5164 ], [ -0.0044, 51.5164 ], [ -0.0035, 51.5176 ], [ -0.0026, 51.5178 ], [ 0.0027, 51.5155 ], [ 0.0036, 51.5145 ], [ 0.0018, 51.5109 ], [ 0.0028, 51.5104 ], [ 0.0043, 51.5106 ], [ 0.0055, 51.5135 ], [ 0.0067, 51.5139 ], [ 0.0074, 51.5127 ], [ 0.0056, 51.51 ], [ 0.0064, 51.5094 ], [ 0.009, 51.5088 ], [ 0.0088, 51.5074 ], [ 0.0058, 51.5083 ], [ 0.0037, 51.5084 ], [ 0.0035, 51.508 ], [ -0.0017, 51.5075 ], [ -0.0058, 51.5051 ], [ -0.0076, 51.5015 ], [ -0.0087, 51.5013 ], [ -0.0077, 51.5008 ], [ -0.0073, 51.4983 ], [ -0.0056, 51.4958 ], [ -0.0062, 51.4956 ], [ -0.0048, 51.4945 ], [ -0.0031, 51.4909 ], [ -0.0037, 51.489 ], [ -0.0044, 51.4883 ], [ -0.0051, 51.4886 ], [ -0.0046, 51.4881 ], [ -0.0067, 51.4871 ], [ -0.0115, 51.4861 ], [ -0.0164, 51.4861 ], [ -0.021, 51.4873 ], [ -0.0238, 51.4889 ], [ -0.0257, 51.4907 ], [ -0.0273, 51.4935 ], [ -0.0262, 51.494 ], [ -0.0276, 51.4943 ], [ -0.0279, 51.4947 ], [ -0.0274, 51.5018 ], [ -0.0267, 51.5033 ], [ -0.0285, 51.5057 ], [ -0.0286, 51.505 ], [ -0.0285, 51.5057 ], [ -0.0301, 51.5074 ], [ -0.0315, 51.5078 ], [ -0.0299, 51.5089 ], [ -0.0326, 51.5082 ], [ -0.0359, 51.5094 ], [ -0.0373, 51.5094 ], [ -0.0369, 51.51 ], [ -0.0378, 51.5095 ], [ -0.0421, 51.5098 ], [ -0.0461, 51.5094 ], [ -0.0497, 51.5081 ], [ -0.0494, 51.5078 ], [ -0.0562, 51.5039 ], [ -0.0608, 51.5028 ], [ -0.0653, 51.5035 ], [ -0.0681, 51.5045 ], [ -0.0681, 51.5049 ], [ -0.0687, 51.5045 ], [ -0.0706, 51.5054 ], [ -0.0712, 51.5052 ], [ -0.0713, 51.5058 ], [ -0.0803, 51.5081 ], [ -0.0919, 51.5094 ], [ -0.0952, 51.5102 ], [ -0.0952, 51.5106 ], [ -0.0961, 51.5103 ], [ -0.0999, 51.5108 ], [ -0.1116, 51.5108 ], [ -0.1169, 51.5101 ], [ -0.1195, 51.5091 ], [ -0.1211, 51.5077 ], [ -0.1231, 51.5042 ], [ -0.1254, 51.4916 ], [ -0.1284, 51.4882 ], [ -0.1325, 51.4857 ], [ -0.14, 51.4848 ], [ -0.1465, 51.4857 ], [ -0.149, 51.4855 ], [ -0.1491, 51.4862 ], [ -0.1497, 51.4861 ], [ -0.1492, 51.4855 ], [ -0.1758, 51.4816 ], [ -0.1777, 51.4804 ], [ -0.1793, 51.478 ], [ -0.1842, 51.4772 ], [ -0.1794, 51.4776 ], [ -0.181, 51.4726 ], [ -0.1845, 51.4677 ], [ -0.1863, 51.4665 ], [ -0.1904, 51.4653 ], [ -0.1942, 51.4648 ], [ -0.2028, 51.4653 ], [ -0.2105, 51.4671 ], [ -0.2105, 51.4677 ], [ -0.2113, 51.4674 ], [ -0.2168, 51.4696 ], [ -0.2226, 51.4747 ], [ -0.2235, 51.4774 ], [ -0.2236, 51.4819 ], [ -0.2287, 51.4888 ], [ -0.2344, 51.4904 ], [ -0.2405, 51.4901 ], [ -0.2431, 51.4894 ], [ -0.2476, 51.4873 ], [ -0.2497, 51.4857 ], [ -0.2514, 51.4822 ], [ -0.2515, 51.4773 ], [ -0.2527, 51.4751 ], [ -0.2547, 51.4729 ], [ -0.2581, 51.4717 ], [ -0.2621, 51.4714 ], [ -0.2657, 51.4719 ], [ -0.2691, 51.4736 ], [ -0.2731, 51.477 ], [ -0.2767, 51.4833 ], [ -0.2816, 51.4863 ], [ -0.2872, 51.4879 ], [ -0.2874, 51.4876 ], [ -0.2925, 51.4875 ], [ -0.299, 51.4853 ], [ -0.3004, 51.484 ], [ -0.3, 51.4841 ], [ -0.2997, 51.4833 ], [ -0.3005, 51.4838 ], [ -0.3014, 51.4834 ], [ -0.3004, 51.4835 ], [ -0.3002, 51.4832 ], [ -0.301, 51.483 ], [ -0.3034, 51.4826 ], [ -0.3042, 51.4832 ], [ -0.3051, 51.4827 ], [ -0.3063, 51.4828 ], [ -0.3049, 51.4823 ], [ -0.304, 51.483 ], [ -0.3044, 51.4822 ], [ -0.3001, 51.4827 ], [ -0.3035, 51.4799 ], [ -0.3041, 51.4796 ], [ -0.3047, 51.4799 ], [ -0.3045, 51.4791 ], [ -0.3052, 51.4783 ], [ -0.3058, 51.4783 ], [ -0.3054, 51.4781 ], [ -0.3062, 51.477 ], [ -0.3071, 51.477 ], [ -0.3063, 51.4769 ], [ -0.3069, 51.4762 ], [ -0.3081, 51.4756 ], [ -0.3087, 51.4759 ], [ -0.3082, 51.4756 ], [ -0.3096, 51.4752 ], [ -0.3094, 51.475 ], [ -0.3098, 51.4752 ], [ -0.31, 51.4747 ], [ -0.3106, 51.4749 ], [ -0.3106, 51.4744 ], [ -0.3112, 51.4747 ], [ -0.3107, 51.4743 ], [ -0.3117, 51.4744 ], [ -0.3113, 51.4741 ], [ -0.3118, 51.4743 ], [ -0.3115, 51.474 ], [ -0.312, 51.4742 ], [ -0.312, 51.4738 ], [ -0.3125, 51.474 ], [ -0.3122, 51.4737 ], [ -0.3127, 51.4739 ], [ -0.3129, 51.4735 ], [ -0.3134, 51.4739 ], [ -0.3131, 51.4735 ], [ -0.3142, 51.4735 ], [ -0.3143, 51.4731 ], [ -0.3147, 51.4734 ], [ -0.3144, 51.473 ], [ -0.3202, 51.4713 ], [ -0.3214, 51.4705 ], [ -0.3225, 51.4707 ], [ -0.3215, 51.4704 ], [ -0.3222, 51.469 ], [ -0.3218, 51.4654 ], [ -0.3235, 51.4653 ], [ -0.324, 51.465 ], [ -0.3248, 51.4644 ], [ -0.3268, 51.4616 ], [ -0.3269, 51.4612 ], [ -0.3264, 51.4609 ], [ -0.3267, 51.4601 ], [ -0.3263, 51.4608 ], [ -0.3268, 51.4613 ], [ -0.324, 51.465 ], [ -0.3217, 51.4654 ], [ -0.319, 51.4627 ], [ -0.314, 51.4597 ], [ -0.3075, 51.4572 ], [ -0.308, 51.4567 ], [ -0.3073, 51.457 ], [ -0.3059, 51.4562 ], [ -0.3039, 51.4533 ], [ -0.3044, 51.4516 ], [ -0.3089, 51.4487 ], [ -0.3158, 51.4467 ], [ -0.3189, 51.4464 ], [ -0.3215, 51.4469 ], [ -0.3252, 51.4465 ], [ -0.3272, 51.4456 ], [ -0.3316, 51.4413 ], [ -0.3312, 51.4397 ], [ -0.3318, 51.4392 ], [ -0.3291, 51.4367 ], [ -0.3285, 51.4339 ], [ -0.3272, 51.4324 ], [ -0.3223, 51.4299 ], [ -0.3185, 51.4291 ], [ -0.3191, 51.43 ], [ -0.3234, 51.4309 ], [ -0.327, 51.4334 ], [ -0.3291, 51.438 ], [ -0.3285, 51.438 ], [ -0.3301, 51.4397 ], [ -0.3301, 51.4416 ], [ -0.3278, 51.4434 ], [ -0.3217, 51.4454 ], [ -0.313, 51.4465 ], [ -0.3058, 51.4486 ], [ -0.3028, 51.4513 ], [ -0.3026, 51.4522 ], [ -0.3028, 51.4534 ], [ -0.305, 51.4565 ], [ -0.308, 51.4588 ], [ -0.3139, 51.4607 ], [ -0.3198, 51.4647 ], [ -0.3186, 51.4702 ], [ -0.3177, 51.471 ], [ -0.3146, 51.4718 ], [ -0.3068, 51.4749 ], [ -0.3026, 51.4792 ], [ -0.2953, 51.4848 ], [ -0.29, 51.4863 ], [ -0.2873, 51.4865 ], [ -0.2844, 51.4859 ], [ -0.2804, 51.4838 ], [ -0.2779, 51.4821 ], [ -0.2724, 51.474 ], [ -0.2678, 51.4712 ], [ -0.264, 51.4702 ], [ -0.2603, 51.4703 ], [ -0.2557, 51.4712 ], [ -0.2515, 51.4736 ], [ -0.2497, 51.4761 ], [ -0.2494, 51.4821 ], [ -0.2484, 51.4838 ], [ -0.2411, 51.4883 ], [ -0.239, 51.4889 ], [ -0.2356, 51.489 ], [ -0.2331, 51.4886 ], [ -0.2313, 51.4879 ], [ -0.228, 51.4851 ], [ -0.2268, 51.481 ], [ -0.2266, 51.4762 ], [ -0.2229, 51.4718 ], [ -0.2237, 51.4716 ], [ -0.2225, 51.4715 ], [ -0.218, 51.4682 ], [ -0.2128, 51.4655 ], [ -0.2037, 51.4632 ], [ -0.1991, 51.4627 ], [ -0.1955, 51.4629 ], [ -0.1951, 51.46 ], [ -0.1933, 51.4598 ], [ -0.1948, 51.4602 ], [ -0.1949, 51.4618 ], [ -0.1939, 51.4615 ], [ -0.1948, 51.4629 ], [ -0.1904, 51.4634 ], [ -0.1836, 51.4655 ], [ -0.181, 51.4676 ], [ -0.1786, 51.4707 ], [ -0.1779, 51.4706 ], [ -0.1785, 51.4708 ], [ -0.1753, 51.4778 ], [ -0.174, 51.4791 ], [ -0.1716, 51.4803 ], [ -0.1489, 51.4836 ], [ -0.1369, 51.4824 ], [ -0.1367, 51.4828 ], [ -0.1321, 51.4837 ], [ -0.127, 51.4858 ], [ -0.1249, 51.4879 ], [ -0.1242, 51.4879 ], [ -0.1221, 51.4919 ], [ -0.1194, 51.5038 ], [ -0.1182, 51.5058 ], [ -0.1151, 51.5077 ], [ -0.111, 51.5085 ], [ -0.0961, 51.5084 ], [ -0.0921, 51.5072 ], [ -0.0811, 51.5059 ], [ -0.0727, 51.5036 ], [ -0.0709, 51.5026 ], [ -0.0735, 51.5005 ], [ -0.0708, 51.5022 ], [ -0.0638, 51.5006 ], [ -0.0573, 51.5009 ], [ -0.0507, 51.5029 ], [ -0.0488, 51.504 ], [ -0.0492, 51.5044 ], [ -0.0477, 51.5042 ], [ -0.048, 51.5048 ], [ -0.047, 51.5054 ], [ -0.0461, 51.5051 ], [ -0.0465, 51.5057 ], [ -0.0457, 51.5061 ], [ -0.0453, 51.5059 ], [ -0.0444, 51.507 ], [ -0.0413, 51.5075 ], [ -0.0373, 51.5072 ], [ -0.0373, 51.5064 ], [ -0.0368, 51.5071 ], [ -0.0342, 51.5063 ], [ -0.033, 51.5044 ], [ -0.0323, 51.5043 ], [ -0.0325, 51.496 ], [ -0.034, 51.4957 ], [ -0.0325, 51.4957 ], [ -0.0327, 51.4944 ], [ -0.0332, 51.4941 ], [ -0.0326, 51.4941 ], [ -0.0294, 51.4886 ], [ -0.0248, 51.4855 ], [ -0.0188, 51.4835 ], [ -0.0181, 51.482 ], [ -0.0164, 51.4815 ], [ -0.0171, 51.4804 ], [ -0.0192, 51.4797 ], [ -0.0198, 51.478 ], [ -0.0194, 51.4772 ], [ -0.0228, 51.4759 ], [ -0.0209, 51.4761 ], [ -0.021, 51.4757 ], [ -0.0227, 51.4754 ], [ -0.0212, 51.4753 ], [ -0.0205, 51.4766 ], [ -0.019, 51.477 ], [ -0.0184, 51.4794 ], [ -0.015, 51.4817 ], [ -0.0179, 51.4825 ], [ -0.0179, 51.4832 ], [ -0.0111, 51.483 ], [ -0.0099, 51.4836 ], [ -0.0073, 51.4838 ], [ -0.0033, 51.4849 ], [ 0.0014, 51.4878 ], [ 0.0024, 51.4895 ], [ 0.0027, 51.4919 ], [ 0.001, 51.4952 ], [ -0.0002, 51.4952 ], [ -0.001, 51.4963 ], [ -0.0022, 51.5013 ], [ -0.0007, 51.5038 ], [ 0.0033, 51.5049 ], [ 0.0051, 51.5044 ], [ 0.0139, 51.497 ], [ 0.018, 51.495 ], [ 0.0215, 51.4945 ], [ 0.0216, 51.494 ], [ 0.0222, 51.4943 ], [ 0.0243, 51.4938 ], [ 0.029, 51.4938 ], [ 0.0403, 51.4954 ], [ 0.0576, 51.4944 ], [ 0.0578, 51.494 ], [ 0.058, 51.4944 ], [ 0.0592, 51.4941 ], [ 0.0593, 51.4945 ], [ 0.0642, 51.4944 ], [ 0.0762, 51.4958 ], [ 0.0823, 51.4989 ], [ 0.0867, 51.5035 ], [ 0.0876, 51.5039 ], [ 0.088, 51.5055 ], [ 0.092, 51.509 ], [ 0.0995, 51.5096 ], [ 0.1069, 51.5094 ], [ 0.1135, 51.5101 ], [ 0.1202, 51.5114 ], [ 0.1251, 51.513 ], [ 0.1289, 51.5132 ], [ 0.1322, 51.5123 ], [ 0.1373, 51.51 ], [ 0.1469, 51.5067 ], [ 0.1479, 51.5068 ], [ 0.1495, 51.5059 ], [ 0.1499, 51.5064 ], [ 0.1528, 51.5064 ], [ 0.1603, 51.5055 ], [ 0.1645, 51.5045 ], [ 0.1666, 51.5035 ], [ 0.1716, 51.4977 ], [ 0.1725, 51.4888 ], [ 0.1753, 51.4861 ], [ 0.1752, 51.4853 ], [ 0.1761, 51.4852 ], [ 0.1781, 51.4835 ], [ 0.1779, 51.483 ], [ 0.1783, 51.4834 ], [ 0.1833, 51.4812 ], [ 0.1903, 51.4797 ], [ 0.1905, 51.479 ], [ 0.1908, 51.4798 ], [ 0.1927, 51.4798 ], [ 0.1938, 51.4793 ], [ 0.1973, 51.4796 ], [ 0.1971, 51.4793 ], [ 0.1986, 51.4797 ], [ 0.1989, 51.4794 ], [ 0.1974, 51.4784 ], [ 0.1989, 51.4793 ], [ 0.1993, 51.4801 ], [ 0.2006, 51.4801 ], [ 0.2001, 51.4789 ], [ 0.1986, 51.4783 ], [ 0.2001, 51.4784 ], [ 0.2021, 51.479 ], [ 0.2019, 51.4802 ], [ 0.2032, 51.4803 ], [ 0.2021, 51.4803 ], [ 0.2023, 51.4806 ], [ 0.2048, 51.4808 ], [ 0.2029, 51.4796 ], [ 0.2051, 51.4809 ], [ 0.2056, 51.4804 ], [ 0.2063, 51.4813 ], [ 0.2096, 51.4816 ], [ 0.2103, 51.4825 ], [ 0.2117, 51.4827 ], [ 0.2177, 51.4804 ], [ 0.216, 51.4795 ], [ 0.2164, 51.4775 ], [ 0.2162, 51.4781 ], [ 0.2157, 51.4769 ], [ 0.2119, 51.4758 ], [ 0.2113, 51.4753 ], [ 0.2114, 51.4732 ], [ 0.2082, 51.4708 ], [ 0.211, 51.4684 ], [ 0.21, 51.4656 ], [ 0.2102, 51.4625 ], [ 0.2044, 51.46 ], [ 0.2026, 51.4583 ], [ 0.1991, 51.4586 ], [ 0.1984, 51.4584 ], [ 0.1973, 51.4576 ], [ 0.1984, 51.4582 ], [ 0.1989, 51.458 ], [ 0.198, 51.457 ], [ 0.1996, 51.4584 ], [ 0.203, 51.458 ], [ 0.2026, 51.4562 ], [ 0.2039, 51.4559 ], [ 0.2027, 51.4539 ], [ 0.2014, 51.4539 ], [ 0.2007, 51.4529 ], [ 0.1991, 51.4521 ], [ 0.196, 51.4518 ], [ 0.1958, 51.4524 ], [ 0.195, 51.4518 ], [ 0.193, 51.4517 ], [ 0.191, 51.4488 ], [ 0.1888, 51.4491 ], [ 0.1878, 51.4487 ], [ 0.1875, 51.4469 ], [ 0.1841, 51.4447 ], [ 0.1811, 51.4441 ], [ 0.1809, 51.4435 ], [ 0.1796, 51.4431 ], [ 0.1787, 51.4435 ], [ 0.176, 51.442 ], [ 0.1728, 51.4432 ], [ 0.1666, 51.4348 ], [ 0.1668, 51.4319 ], [ 0.1661, 51.4314 ], [ 0.1667, 51.4313 ], [ 0.1641, 51.4285 ], [ 0.1639, 51.4289 ], [ 0.1607, 51.4297 ], [ 0.1598, 51.4292 ], [ 0.1591, 51.4302 ], [ 0.1559, 51.4309 ], [ 0.1554, 51.4292 ], [ 0.1538, 51.4275 ], [ 0.1529, 51.4217 ], [ 0.1512, 51.4204 ], [ 0.1546, 51.4185 ], [ 0.1541, 51.4178 ], [ 0.1511, 51.4176 ], [ 0.1511, 51.4149 ], [ 0.1492, 51.4124 ], [ 0.1498, 51.4117 ], [ 0.1538, 51.4113 ], [ 0.1529, 51.4087 ], [ 0.1493, 51.4091 ], [ 0.1488, 51.4085 ], [ 0.1511, 51.4066 ], [ 0.1527, 51.4063 ], [ 0.1552, 51.404 ], [ 0.155, 51.4037 ], [ 0.1565, 51.4024 ], [ 0.159, 51.3958 ], [ 0.1624, 51.3925 ], [ 0.1481, 51.3928 ], [ 0.1475, 51.3922 ], [ 0.1498, 51.3909 ], [ 0.1487, 51.3887 ], [ 0.1494, 51.3879 ], [ 0.1489, 51.3876 ], [ 0.1505, 51.386 ], [ 0.1498, 51.3849 ], [ 0.1498, 51.3837 ], [ 0.1505, 51.3834 ], [ 0.1504, 51.3811 ], [ 0.1496, 51.3811 ], [ 0.1496, 51.3801 ], [ 0.1511, 51.3799 ], [ 0.151, 51.3791 ], [ 0.1532, 51.378 ], [ 0.1525, 51.3752 ], [ 0.1517, 51.3754 ], [ 0.1497, 51.3736 ], [ 0.1509, 51.3729 ], [ 0.1501, 51.3702 ], [ 0.1521, 51.3697 ], [ 0.1516, 51.3684 ], [ 0.1495, 51.3691 ], [ 0.1473, 51.367 ], [ 0.1483, 51.3664 ], [ 0.1452, 51.363 ], [ 0.1445, 51.361 ], [ 0.1454, 51.3603 ], [ 0.1448, 51.3584 ], [ 0.146, 51.3582 ], [ 0.1436, 51.353 ], [ 0.1429, 51.3527 ], [ 0.1426, 51.3507 ], [ 0.1411, 51.3501 ], [ 0.1413, 51.3496 ], [ 0.1387, 51.3475 ], [ 0.1394, 51.347 ], [ 0.1383, 51.3471 ], [ 0.1372, 51.3459 ], [ 0.1362, 51.3459 ], [ 0.137, 51.3442 ], [ 0.1318, 51.3455 ], [ 0.1317, 51.3452 ], [ 0.125, 51.3458 ], [ 0.1222, 51.3447 ], [ 0.1185, 51.3442 ], [ 0.1172, 51.3432 ], [ 0.1168, 51.3418 ], [ 0.1173, 51.3398 ], [ 0.1185, 51.34 ], [ 0.119, 51.3387 ], [ 0.1183, 51.3384 ], [ 0.1196, 51.3354 ], [ 0.1217, 51.3336 ], [ 0.1179, 51.3306 ], [ 0.1179, 51.3297 ], [ 0.1174, 51.3295 ], [ 0.1166, 51.33 ], [ 0.1157, 51.3295 ], [ 0.1141, 51.3275 ], [ 0.1102, 51.3281 ], [ 0.1098, 51.3267 ], [ 0.1071, 51.3275 ], [ 0.1049, 51.3274 ], [ 0.1033, 51.3261 ], [ 0.1008, 51.3256 ], [ 0.1003, 51.3242 ], [ 0.0962, 51.3213 ], [ 0.0878, 51.3183 ], [ 0.085, 51.316 ], [ 0.0856, 51.3148 ], [ 0.0851, 51.3126 ], [ 0.0836, 51.3105 ], [ 0.0847, 51.3084 ], [ 0.0841, 51.308 ], [ 0.0849, 51.306 ], [ 0.0829, 51.3057 ], [ 0.0854, 51.3025 ], [ 0.0863, 51.3002 ], [ 0.0912, 51.2968 ], [ 0.0893, 51.2961 ], [ 0.0856, 51.293 ], [ 0.0816, 51.2918 ], [ 0.0731, 51.2915 ], [ 0.0642, 51.2899 ], [ 0.0585, 51.2894 ], [ 0.0561, 51.2924 ], [ 0.0544, 51.2921 ], [ 0.0508, 51.294 ], [ 0.0485, 51.2937 ], [ 0.0457, 51.294 ], [ 0.0445, 51.293 ], [ 0.0424, 51.2927 ], [ 0.0443, 51.2986 ], [ 0.0433, 51.2991 ], [ 0.0426, 51.3014 ], [ 0.0415, 51.303 ], [ 0.0409, 51.3027 ], [ 0.0329, 51.3075 ], [ 0.0304, 51.3056 ], [ 0.028, 51.3047 ], [ 0.0248, 51.3022 ], [ 0.0236, 51.2997 ], [ 0.021, 51.2968 ], [ 0.0191, 51.2917 ], [ 0.015, 51.2918 ], [ 0.0084, 51.3104 ], [ 0.0103, 51.3161 ], [ 0.0066, 51.3157 ], [ 0.0023, 51.3291 ], [ -0.0005, 51.3288 ], [ -0.0017, 51.3303 ], [ -0.0071, 51.3337 ], [ -0.0089, 51.3339 ], [ -0.0107, 51.3338 ], [ -0.0107, 51.3331 ], [ -0.0119, 51.3329 ], [ -0.0135, 51.3315 ], [ -0.0143, 51.3298 ], [ -0.0159, 51.332 ], [ -0.017, 51.3329 ], [ -0.0178, 51.3329 ], [ -0.0206, 51.3371 ], [ -0.0224, 51.3382 ], [ -0.026, 51.3386 ], [ -0.0328, 51.3374 ], [ -0.038, 51.3386 ], [ -0.0395, 51.3376 ], [ -0.042, 51.3338 ], [ -0.0466, 51.3335 ], [ -0.0503, 51.3326 ], [ -0.0501, 51.3321 ], [ -0.051, 51.3316 ], [ -0.0511, 51.3308 ], [ -0.0487, 51.3287 ], [ -0.0479, 51.3252 ], [ -0.0498, 51.3253 ], [ -0.0513, 51.3234 ], [ -0.0513, 51.3224 ], [ -0.0525, 51.3224 ], [ -0.0549, 51.3213 ], [ -0.0563, 51.3217 ], [ -0.0584, 51.3204 ], [ -0.0607, 51.3201 ], [ -0.064, 51.3186 ], [ -0.07, 51.3189 ], [ -0.071, 51.3212 ], [ -0.0789, 51.3198 ], [ -0.0788, 51.3181 ], [ -0.0802, 51.3178 ], [ -0.0813, 51.3168 ], [ -0.0836, 51.3166 ], [ -0.0848, 51.3159 ], [ -0.0815, 51.3121 ], [ -0.0819, 51.3106 ], [ -0.0866, 51.3088 ], [ -0.0888, 51.3071 ], [ -0.0887, 51.3051 ], [ -0.0897, 51.304 ], [ -0.0907, 51.304 ], [ -0.0912, 51.3034 ], [ -0.0912, 51.3015 ], [ -0.094, 51.3007 ], [ -0.0948, 51.3007 ], [ -0.096, 51.3015 ], [ -0.0974, 51.3011 ], [ -0.0972, 51.3003 ], [ -0.0943, 51.2994 ], [ -0.1111, 51.2923 ], [ -0.1148, 51.2924 ], [ -0.1146, 51.2915 ], [ -0.117, 51.2894 ], [ -0.1178, 51.2871 ], [ -0.1243, 51.2868 ], [ -0.1261, 51.2884 ], [ -0.1262, 51.2895 ], [ -0.1302, 51.2927 ], [ -0.1315, 51.2947 ], [ -0.1311, 51.2954 ], [ -0.1344, 51.2984 ], [ -0.1363, 51.2982 ], [ -0.1374, 51.3008 ], [ -0.141, 51.2996 ], [ -0.1428, 51.3 ], [ -0.1436, 51.3013 ], [ -0.1457, 51.2998 ], [ -0.1485, 51.3007 ], [ -0.15, 51.3003 ], [ -0.1534, 51.3017 ], [ -0.1554, 51.3014 ], [ -0.1577, 51.3046 ], [ -0.1545, 51.3064 ], [ -0.157, 51.3067 ], [ -0.1543, 51.3103 ], [ -0.1583, 51.311 ], [ -0.1572, 51.3134 ], [ -0.1591, 51.3157 ], [ -0.1596, 51.3171 ], [ -0.1605, 51.3168 ], [ -0.1612, 51.3174 ], [ -0.1619, 51.3196 ], [ -0.1565, 51.3214 ], [ -0.1586, 51.324 ], [ -0.1606, 51.3232 ], [ -0.1642, 51.326 ], [ -0.1636, 51.3262 ], [ -0.1644, 51.328 ], [ -0.1637, 51.3287 ], [ -0.1623, 51.3289 ], [ -0.1631, 51.3302 ], [ -0.1701, 51.3295 ], [ -0.17, 51.3303 ], [ -0.173, 51.33 ], [ -0.1749, 51.3337 ], [ -0.1824, 51.338 ], [ -0.1874, 51.3407 ], [ -0.1974, 51.3436 ], [ -0.2012, 51.3399 ], [ -0.2021, 51.3401 ], [ -0.213, 51.3355 ], [ -0.2119, 51.3333 ], [ -0.2141, 51.3304 ], [ -0.2161, 51.3298 ], [ -0.2209, 51.3299 ], [ -0.2292, 51.3359 ], [ -0.2298, 51.3365 ], [ -0.2268, 51.3379 ], [ -0.2243, 51.3401 ], [ -0.2232, 51.3398 ], [ -0.2221, 51.3404 ], [ -0.2226, 51.3409 ], [ -0.2173, 51.3434 ], [ -0.2182, 51.3462 ], [ -0.2204, 51.3514 ], [ -0.2221, 51.3513 ], [ -0.2227, 51.3569 ], [ -0.2269, 51.3626 ], [ -0.2332, 51.366 ], [ -0.234, 51.3654 ], [ -0.2366, 51.3667 ], [ -0.2387, 51.367 ], [ -0.2409, 51.367 ], [ -0.2412, 51.3663 ], [ -0.2454, 51.367 ], [ -0.2446, 51.3702 ], [ -0.245, 51.38 ], [ -0.2464, 51.3802 ], [ -0.2538, 51.3788 ], [ -0.257, 51.3788 ], [ -0.2611, 51.3796 ], [ -0.2625, 51.3773 ], [ -0.2648, 51.3756 ], [ -0.2725, 51.3723 ], [ -0.274, 51.3707 ], [ -0.2758, 51.37 ], [ -0.2764, 51.3689 ], [ -0.2798, 51.3678 ], [ -0.2841, 51.3651 ], [ -0.2883, 51.3621 ], [ -0.2851, 51.3612 ], [ -0.287, 51.3594 ], [ -0.289, 51.3587 ], [ -0.2911, 51.3566 ], [ -0.2928, 51.3527 ], [ -0.3001, 51.3475 ], [ -0.3016, 51.345 ], [ -0.304, 51.343 ], [ -0.3054, 51.3395 ], [ -0.3049, 51.3367 ], [ -0.3062, 51.3351 ], [ -0.3109, 51.3324 ], [ -0.3131, 51.3317 ], [ -0.319, 51.328 ], [ -0.324, 51.3267 ], [ -0.3283, 51.3265 ], [ -0.3301, 51.3275 ], [ -0.3307, 51.329 ], [ -0.3291, 51.3303 ], [ -0.3296, 51.3339 ], [ -0.3289, 51.3408 ], [ -0.3277, 51.344 ], [ -0.3305, 51.3484 ], [ -0.3279, 51.3522 ], [ -0.3237, 51.3544 ], [ -0.3202, 51.3591 ], [ -0.3183, 51.3637 ], [ -0.3179, 51.3698 ], [ -0.3167, 51.3732 ], [ -0.3143, 51.3746 ], [ -0.3087, 51.3754 ], [ -0.3079, 51.3784 ], [ -0.3074, 51.3784 ], [ -0.3085, 51.3805 ], [ -0.3093, 51.3804 ], [ -0.3106, 51.3848 ], [ -0.3118, 51.3858 ], [ -0.3108, 51.3862 ], [ -0.3131, 51.3888 ], [ -0.316, 51.3876 ], [ -0.3168, 51.3886 ], [ -0.3141, 51.3902 ], [ -0.3177, 51.3937 ], [ -0.3194, 51.3928 ], [ -0.3251, 51.3915 ], [ -0.3286, 51.3923 ], [ -0.3406, 51.4031 ], [ -0.3438, 51.404 ], [ -0.3492, 51.4066 ], [ -0.3548, 51.4096 ], [ -0.3554, 51.4108 ], [ -0.3598, 51.412 ], [ -0.3635, 51.4118 ], [ -0.3742, 51.4084 ], [ -0.3794, 51.4078 ], [ -0.3834, 51.4085 ], [ -0.3838, 51.4101 ], [ -0.3892, 51.4103 ], [ -0.3902, 51.4143 ], [ -0.3862, 51.4143 ], [ -0.3877, 51.4193 ], [ -0.3867, 51.42 ], [ -0.3914, 51.4223 ], [ -0.3955, 51.4234 ], [ -0.4006, 51.4235 ], [ -0.4054, 51.4225 ], [ -0.4078, 51.4236 ] ], [ [ -0.3312, 51.4396 ], [ -0.3307, 51.4389 ], [ -0.3315, 51.4393 ], [ -0.3312, 51.4396 ] ], [ [ -0.3209, 51.4461 ], [ -0.3251, 51.4448 ], [ -0.3255, 51.445 ], [ -0.3251, 51.4448 ], [ -0.3281, 51.444 ], [ -0.3258, 51.4457 ], [ -0.3209, 51.4461 ] ], [ [ -0.3084, 51.4578 ], [ -0.3099, 51.4585 ], [ -0.3087, 51.4582 ], [ -0.3084, 51.4578 ] ], [ [ -0.3209, 51.466 ], [ -0.3212, 51.4696 ], [ -0.3198, 51.4707 ], [ -0.3209, 51.466 ] ], [ [ -0.2981, 51.4848 ], [ -0.2984, 51.485 ], [ -0.2976, 51.4853 ], [ -0.2986, 51.4841 ], [ -0.299, 51.4847 ], [ -0.2981, 51.4848 ] ], [ [ -0.2948, 51.486 ], [ -0.2974, 51.4846 ], [ -0.2964, 51.4856 ], [ -0.2948, 51.486 ] ], [ [ -0.2899, 51.4872 ], [ -0.2939, 51.4862 ], [ -0.2945, 51.4861 ], [ -0.2919, 51.487 ], [ -0.2899, 51.4872 ] ], [ [ -0.2462, 51.4876 ], [ -0.2445, 51.4883 ], [ -0.2476, 51.4865 ], [ -0.2462, 51.4876 ] ], [ [ 0.199, 51.4581 ], [ 0.1986, 51.4583 ], [ 0.1993, 51.4584 ], [ 0.199, 51.4581 ] ], [ [ 0.2021, 51.479 ], [ 0.2001, 51.4784 ], [ 0.1987, 51.4783 ], [ 0.2001, 51.4789 ], [ 0.2005, 51.4798 ], [ 0.2011, 51.4795 ], [ 0.2006, 51.4798 ], [ 0.2013, 51.4802 ], [ 0.2021, 51.479 ] ] ] } }
]
}
